{
  "norad_id": 57172,
  "name": "UMKA 1 (RS40S)",
  "history": [
    {
      "epoch": "2026-03-28T22:19:07.016448",
      "apogee_km": 515.8334283349968,
      "perigee_km": 496.62659512163555,
      "latitude_deg": -47.546185477305315,
      "longitude_deg": -13.525537280132994,
      "semi_major_axis_km": 6884.367011728315,
      "eccentricity": 0.00139496,
      "inclination_deg": 97.5142,
      "raan_deg": 146.9571,
      "arg_perigee_deg": 45.6892,
      "mean_anomaly_deg": 314.5484,
      "mean_motion_rev_day": 15.19871039
    },
    {
      "epoch": "2026-03-29T04:38:20.193792",
      "apogee_km": 515.800164625769,
      "perigee_km": 496.61624827347714,
      "latitude_deg": 84.61846385173358,
      "longitude_deg": 11.755770880030468,
      "semi_major_axis_km": 6884.345206449623,
      "eccentricity": 0.0013933,
      "inclination_deg": 97.5142,
      "raan_deg": 147.2194,
      "arg_perigee_deg": 44.7381,
      "mean_anomaly_deg": 315.4975,
      "mean_motion_rev_day": 15.1987826
    }
  ]
}